AP_TYPE,Name of Access Point,Office Type:,AP_Attached_Facility,Attach_Facility Name,Street Address,City or town,CHIEFDOM,REGION,DISTRICT,Products Offered,Services offered,Status,Agent Code/ Branch Code,Longitude,Lattitude,Photo
Banking Agent,GT Bank SL Limited,Cash Point,,T.Choithram and Sons,5 Rawdon Street,Freetown,CENTRAL I,WESTERN,WESTERN URBAN,,,,,-13.23268,8.48948,
Banking Agent,GT Bank SL Limited,Cash Point,,Goshen Trade Link,19 Wilberforce Street By PZ,Freetown,CENTRAL I,WESTERN,WESTERN URBAN,,,,,-13.23143,8.48876,
Banking Agent,GT Bank SL Limited,Cash Point,,Ismail Fx,18 Garrison street,Freetown,CENTRAL I,WESTERN,WESTERN URBAN,,,,,-13.23027,8.48931,
Banking Agent,GT Bank SL Limited,Cash Point,,De Bees Foreign Exchange,61 Regent Road Off Circular Road ,Freetown,CENTRAL I,WESTERN,WESTERN URBAN,,,,,-13.2293,8.48305,
Banking Agent,GT Bank SL Limited,Cash Point,,Bimi FX  Bureau,26 Siaka Stevens Street,Freetown,CENTRAL II,WESTERN,WESTERN URBAN,,,,,-13.23521,8.48784,
Banking Agent,GT Bank SL Limited,Cash Point,,Goshen Trade Link,25 Siaka Steven Street ,Freetown,CENTRAL II,WESTERN,WESTERN URBAN,,,,,-13.23521,8.48784,
Banking Agent,GT Bank SL Limited,Cash Point,,Bimi FX  Bureau,18B Howe Street,Freetown,CENTRAL II,WESTERN,WESTERN URBAN,,,,,-13.23318,8.48913,
Banking Agent,GT Bank SL Limited,Cash Point,,Calmond Services,385 Bai Bureh Road,Freetown,EAST III,WESTERN,WESTERN URBAN,,,,,-13.20276,8.47923,
Banking Agent,GT Bank SL Limited,Cash Point,,Dee K.S Enterprise,315 Bai Bureh Road,Freetown,EAST III,WESTERN,WESTERN URBAN,,,,,-13.20276,8.47923,
Banking Agent,GT Bank SL Limited,Cash Point,,Kemus Point Investment,172 Bai Bureh Road,Freetown,EAST III,WESTERN,WESTERN URBAN,,,,,-13.20276,8.47923,
Banking Agent,GT Bank SL Limited,Cash Point,,Am-Net Enterprise,284 Bai Bureh Road,Freetown,EAST III,WESTERN,WESTERN URBAN,,,,,-13.20276,8.47923,
Banking Agent,GT Bank SL Limited,Cash Point,,Alusma Bus.Const.Inv&Gen.M,66 Main Motor Road CalabaTown ,Freetown,EAST III,WESTERN,WESTERN URBAN,,,,,-13.17658,8.46633,
Banking Agent,GT Bank SL Limited,Cash Point,,Bimi FX  Bureau,290 Baibureh Road Calaba Town,Freetown,EAST III,WESTERN,WESTERN URBAN,,,,,-13.17496,8.46463,
Banking Agent,GT Bank SL Limited,Cash Point,,Esto Nato's Enterprise,286 Bai Bureh Road Calaba Town,Freetown,EAST III,WESTERN,WESTERN URBAN,,,,,-13.17488,8.46458,
Banking Agent,GT Bank SL Limited,Cash Point,,De Bees Foreign Exchange,408 Bai Bureh Road Rokel,Freetown,EAST III,WESTERN,WESTERN URBAN,,,,,-13.15516,8.42452,
Banking Agent,GT Bank SL Limited,Cash Point,,Ismail Fx,Regent Road,Freetown,MOUNTAIN RURAL,WESTERN,WESTERN RURAL,,,,,-13.23313,8.44743,
Banking Agent,GT Bank SL Limited,Cash Point,,Ismail Fx,29 Jui Junction,Freetown,WATERLOO RURAL,WESTERN,WESTERN RURAL,,,,,-13.14397,8.39246,
Banking Agent,GT Bank SL Limited,Cash Point,,Ismail Fx,6 Fullah Mosque Devil Hole,Freetown,WATERLOO RURAL,WESTERN,WESTERN RURAL,,,,,-13.08235,8.35818,
Banking Agent,GT Bank SL Limited,Cash Point,,"Alusine, Usif & Khadija Int Ent",555  Junction Waterloo,Freetown,WATERLOO RURAL,WESTERN,WESTERN RURAL,,,,,-13.05143,8.33031,
Banking Agent,GT Bank SL Limited,Cash Point,,Nillan Health Care,38B Hillcut Road ,Freetown,WEST II,WESTERN,WESTERN URBAN,,,,,-13.25119,8.4642,
Banking Agent,GT Bank SL Limited,Cash Point,,Destiny Builders SL LTD,10 Rock Lane,Freetown,WEST II,WESTERN,WESTERN URBAN,,,,,-13.24073,8.47459,
Banking Agent,GT Bank SL Limited,Cash Point,,Archway FX  Bureau,40 Wilkinson Road,Freetown,WEST III,WESTERN,WESTERN URBAN,,,,,-13.27342,8.47655,
Banking Agent,GT Bank SL Limited,Cash Point,,Monoprix Supermarket,4c Wilkinson Road,Freetown,WEST III,WESTERN,WESTERN URBAN,,,,,-13.27342,8.47655,
Banking Agent,GT Bank SL Limited,Cash Point,,Ismail Fx,5B Freetown Road Lumley,Freetown,WEST III,WESTERN,WESTERN URBAN,,,,,-13.27082,8.45777,
Banking Agent,GT Bank SL Limited,Cash Point,,Goshen Trade Link,4  Road Lumley,Freetown,WEST III,WESTERN,WESTERN URBAN,,,,,-13.27082,8.45777,
Banking Agent,GT Bank SL Limited,Cash Point,,Ismail Fx,Mafa Field Lumley,Freetown,WEST III,WESTERN,WESTERN URBAN,,,,,-13.26314,8.45165,
Banking Agent,GT Bank SL Limited,Cash Point,,Ismail Fx,2 Regent Road Wilberforce Bottom Mango,Freetown,WEST III,WESTERN,WESTERN URBAN,,,,,-13.26298,8.47129,
Banking Agent,GT Bank SL Limited,Cash Point,,Ismail Fx,190Peninsular Road Goderich,Freetown,YORK RURAL,WESTERN,WESTERN RURAL,,,,,-13.27727,8.43155,
Banking Agent,GT Bank SL Limited,Cash Point,,Grace be to God Enterprise,7 Battalion Goderich,Freetown,YORK RURAL,WESTERN,WESTERN RURAL,,,,,-13.27564,8.43281,
Banking Agent,GT Bank SL Limited,Cash Point,,Ismail Fx,8 Main Road Ogo Farm Peninsular,Freetown,YORK RURAL,WESTERN,WESTERN RURAL,,,,,-13.26243,8.40377,
Banking Agent,Sierra Leone Commercial Bank Ltd,Cash Point,,Muricka Enterprise,153 Circular Road,Freetown,CENTRAL I,WESTERN,WESTERN URBAN,,,,,-13.23076,8.47845,
Banking Agent,Sierra Leone Commercial Bank Ltd,Cash Point,,ETG Management,106 Campbell Street,Freetown,CENTRAL II,WESTERN,WESTERN URBAN,,,,,-13.23981,8.47782,
Banking Agent,Sierra Leone Commercial Bank Ltd,Cash Point,,Rugie & Co General  Merchandise,23A Naimbana Street,Freetown,CENTRAL II,WESTERN,WESTERN URBAN,,,,,-13.23872,8.48165,
Banking Agent,Sierra Leone Commercial Bank Ltd,Cash Point,,ACS Sierra Leone Limited,83 Wellington Street,Freetown,CENTRAL II,WESTERN,WESTERN URBAN,,,,,-13.23789,8.48477,
Banking Agent,Sierra Leone Commercial Bank Ltd,Cash Point,,Hawamed Investment SL Limited,87 Mountain Cut,Freetown,EAST II,WESTERN,WESTERN URBAN,,,,,-13.22633,8.48379,
Banking Agent,Sierra Leone Commercial Bank Ltd,Cash Point,,Naserrah Enterprise,90 Kissy Road,Freetown,EAST II,WESTERN,WESTERN URBAN,,,,,-13.21265,8.48316,
Banking Agent,Sierra Leone Commercial Bank Ltd,Cash Point,,Sallieu Jalloh Investment,Main Motor Road Wash Car Grafton  ,Freetown,WATERLOO RURAL,WESTERN,WESTERN RURAL,,,,,-13.15452,8.397,
Banking Agent,Sierra Leone Commercial Bank Ltd,Cash Point,,Samukoro Enterprise,Main Motor Road Kossoh Town ,Freetown,WATERLOO RURAL,WESTERN,WESTERN RURAL,,,,,-13.12343,8.38873,
Banking Agent,Sierra Leone Commercial Bank Ltd,Cash Point,,Segimart Enterprise,55 New Road Waterloo ,Freetown,WATERLOO RURAL,WESTERN,WESTERN RURAL,,,,,-13.05143,8.33031,
Banking Agent,Sierra Leone Commercial Bank Ltd,Cash Point,,TNB Flash FX,44 Edward Street,Freetown,WEST I,WESTERN,WESTERN URBAN,,,,,-13.24205,8.48193,
Banking Agent,Sierra Leone Commercial Bank Ltd,Cash Point,,Tehdia Investment,92 Sanders Street,Freetown,WEST I,WESTERN,WESTERN URBAN,,,,,-13.24119,8.4814,
Banking Agent,Rokel Commercial Bank (SL) Ltd,Cash Point,,Alhaji J Gallah,GBO Kakahama Pendembu,KAILAHUN TOWN,KENEMA CITY,EASTERN,KENEMA,,,,,-11.1941,7.8665,
Banking Agent,Rokel Commercial Bank (SL) Ltd,Cash Point,,BOB SAFFA GENDA,2 Ndolleh Street Kailahun Town,KAILAHUN TOWN,LUAWA,EASTERN,KAILAHUN,,,,,-10.57436,8.27927,
Banking Agent,Rokel Commercial Bank (SL) Ltd,Cash Point,,SANDY KONGO SAMA,Kula Section Kailahun Town,KAILAHUN TOWN,LUAWA,EASTERN,KAILAHUN,,,,,-10.56772,8.27715,
Banking Agent,Rokel Commercial Bank (SL) Ltd,Cash Point,,Patrick .L. Goba,50 Dakiyi street,KENEMA CITY,KENEMA CITY,EASTERN,KENEMA,,,,,-11.19013,7.8706,
Banking Agent,Rokel Commercial Bank (SL) Ltd,Cash Point,,Abdulai Sow,RCBank Kiosk Dama Road,KENEMA CITY,KENEMA CITY,EASTERN,KENEMA,,,,,-11.18658,7.8767,
Banking Agent,Rokel Commercial Bank (SL) Ltd,Cash Point,,Ibrahim Sangarie,15 Massaquoi street,KENEMA CITY,KENEMA CITY,EASTERN,KENEMA,,,,,-11.18422,7.89759,
Banking Agent,Rokel Commercial Bank (SL) Ltd,Cash Point,,Kelfala Koroma,Daru Filling station,KENEMA CITY,KENEMA CITY,EASTERN,KENEMA,,,,,-11.19472,7.86749,
Banking Agent,Rokel Commercial Bank (SL) Ltd,Cash Point,,Entrepreneur Sidis,43 Main Kainicordu Road,KOIDU CITY,KOIDU CITY,EASTERN,KONO,,,,,-10.97071,8.64483,
Banking Agent,Rokel Commercial Bank (SL) Ltd,Cash Point,,Abdulai Tarawally,2 Mabanta Road,MAKENI CITY,MAKENI CITY,NORTHERN,BOMBALI,,,,,-12.05206,8.8779,
Banking Agent,Rokel Commercial Bank (SL) Ltd,Cash Point,,Abdulai Tarawally,11 Azzoloni Highway,MAKENI CITY,MAKENI CITY,NORTHERN,BOMBALI,,,,,-12.0515,8.87843,
Banking Agent,Rokel Commercial Bank (SL) Ltd,Cash Point,,Abdulai Tarawally,1 Watson Street,MAKENI CITY,MAKENI CITY,NORTHERN,BOMBALI,,,,,-12.0351,8.88203,
Banking Agent,Rokel Commercial Bank (SL) Ltd,Cash Point,,Mohamed Henry Sesay,6 Market Road,MAKENI CITY,MAKENI CITY,NORTHERN,BOMBALI,,,,,-12.04364,8.88843,
Banking Agent,Rokel Commercial Bank (SL) Ltd,Cash Point,,Fatmata Kargbo,8 New London,MAKENI CITY,GBANTI,NORTHERN,BOMBALI,,,,,-12.05162,8.89587,
Banking Agent,Rokel Commercial Bank (SL) Ltd,Cash Point,,Abdulai Tarawally,2 Hospital Road,MABURAKA TOWN,KHOLIFA ROWALA,NORTHERN,TONKOLILI,,,,,-11.93946,8.72064,
Banking Agent,Rokel Commercial Bank (SL) Ltd,Cash Point,,Abdulai Tarawally,8 Bo Road,MABURAKA TOWN,KHOLIFA ROWALA,NORTHERN,TONKOLILI,,,,,-11.94941,8.72324,
Banking Agent,Rokel Commercial Bank (SL) Ltd,Cash Point,,Abdulai Tarawally,Masanga town,MABURAKA TOWN,KHOLIFA ROWALA,NORTHERN,TONKOLILI,,,,,-11.83751,8.74949,
Banking Agent,Rokel Commercial Bank (SL) Ltd,Cash Point,,Abdulai Tarawally,2 Haspital Road Maborak,MABURAKA TOWN,KHOLIFA ROWALA,NORTHERN,TONKOLILI,,,,,-11.93946,8.72064,
Banking Agent,Rokel Commercial Bank (SL) Ltd,Cash Point,,Karifa Marah,Seria,FALABA,SULIMA,NORTHERN,FALABA,,,,,-11.3179,9.85395,
Banking Agent,Rokel Commercial Bank (SL) Ltd,Cash Point,,Mohamed marah,Gbawuria Road Kabala,KABALA TOWN,WARA WARA YAGALA,NORTHERN,KOINADUGU,,,,,-11.55721,9.5851,
Banking Agent,Rokel Commercial Bank (SL) Ltd,Cash Point,,Gibril A Kanu,20 Old Makeni Road,PORT LOKO TOWN,PORT LOKO CITY,NORTH WESTERN,PORT LOKO,,,,,-12.77428,8.7735,
Banking Agent,Rokel Commercial Bank (SL) Ltd,Cash Point,,Edison Sandi Koroma,01 Hospital road ,PORT LOKO TOWN,PORT LOKO CITY,NORTH WESTERN,PORT LOKO,,,,,-12.78467,8.76515,
Banking Agent,Rokel Commercial Bank (SL) Ltd,Cash Point,,Abdulai Tarawally,Shell Freetown Highway,LUNSAR TOWN,MARAMPA,NORTH WESTERN,PORT LOKO,,,,,-12.54321,8.68763,
Banking Agent,Rokel Commercial Bank (SL) Ltd,Cash Point,,Morning  Side Enterprise,Airport Junction,LUNGI TOWN,KAFFU BULLOM,NORTH WESTERN,PORT LOKO,,,,,-13.20173,8.61344,
Banking Agent,Rokel Commercial Bank (SL) Ltd,Cash Point,,Day And Night,902 Airport Ferry Road,LUNGI TOWN,KAFFU BULLOM,NORTH WESTERN,PORT LOKO,,,,,-13.22168,8.64009,
Banking Agent,Rokel Commercial Bank (SL) Ltd,Cash Point,,Alimamy Dixon,10 Mariatu Street,LUNGI TOWN,KAFFU BULLOM,NORTH WESTERN,PORT LOKO,,,,,-13.21554,8.6313,
Banking Agent,Rokel Commercial Bank (SL) Ltd,Cash Point,,Binta Enterprise,10 Fenton Road ,BO CITY,BO TOWN,SOUTHERN,BO,,,,,-11.74052,7.9643,
Banking Agent,Rokel Commercial Bank (SL) Ltd,Cash Point,,Mohamed Munda Tarley,RCBank Kiosk  Bojon Stree (Front Bank),BO CITY,BO TOWN,SOUTHERN,BO,,,,,-11.73937,7.96576,
Banking Agent,Rokel Commercial Bank (SL) Ltd,Cash Point,,Jiah Koroma,15 Bojon street,BO CITY,BO TOWN,SOUTHERN,BO,,,,,-11.73979,7.96626,
Banking Agent,Rokel Commercial Bank (SL) Ltd,Cash Point,,Mahmoud Kondeh,15 Bojon street,BO CITY,BO TOWN,SOUTHERN,BO,,,,,-11.73979,7.96626,
Banking Agent,Rokel Commercial Bank (SL) Ltd,Cash Point,,Julius Allieu,15 Bojon street,BO CITY,BO TOWN,SOUTHERN,BO,,,,,-11.73979,7.96626,
Banking Agent,Rokel Commercial Bank (SL) Ltd,Cash Point,,Mattia Junior Patrick,1 Daniel Moriba Town,BONTH TOWN,IMPERRI,SOUTHERN,BONTHE,,,,,-12.29765,7.79213,
Banking Agent,Rokel Commercial Bank (SL) Ltd,Cash Point,,Ibrahim Yamba,48 BO Road Goba Town Mattru Jong,BONTH TOWN,JONG,SOUTHERN,BONTHE,,,,,-12.17182,7.60516,
Banking Agent,Rokel Commercial Bank (SL) Ltd,Cash Point,,Patrick Junior Mattia,1 Daniel Moriba Town Sierra Rutile,MOYAMBA TOWN,IMPERRI,SOUTHERN,BONTHE,,,,,-12.29765,7.79213,
Banking Agent,Rokel Commercial Bank (SL) Ltd,Cash Point,,Mustapha Kamara,22 Sembehun Road ,MOYAMBA TOWN,KAIYAMBA,SOUTHERN,MOYAMBA,,,,,-12.43209,8.15196,
Banking Agent,Rokel Commercial Bank (SL) Ltd,Cash Point,,Tommy Fillie,2 Sanfa Lane Kaiyamba Chiefdom,MOYAMBA TOWN,KAIYAMBA,SOUTHERN,MOYAMBA,,,,,-12.43502,8.1627,
Banking Agent,Rokel Commercial Bank (SL) Ltd,Cash Point,,Samuel Simbo Sesay,9A Finoh Mboyawah Road kaiyamba Chiefdom,MOYAMBA TOWN,KAIYAMBA,SOUTHERN,MOYAMBA,,,,,-12.43805,8.16062,
Banking Agent,Rokel Commercial Bank (SL) Ltd,Cash Point,,Lukman Hull,Sembehun Town Bagruwa,MOYAMBA TOWN,BAGRUWA,SOUTHERN,MOYAMBA,,,,,-12.53823,7.93905,
Banking Agent,Rokel Commercial Bank (SL) Ltd,Cash Point,,Thomas S Pessima,NP Filling station moyamba ,MOYAMBA TOWN,KAIYAMBA,SOUTHERN,MOYAMBA,,,,,-12.44012,8.1627,
Banking Agent,Rokel Commercial Bank (SL) Ltd,Cash Point,,Ballah Marrah,Stooke road,PUJRHUN TOWN,PANGA,SOUTHERN,PUJEHUN,,,,,-11.72141,7.3552,
Banking Agent,Rokel Commercial Bank (SL) Ltd,Cash Point,,Abu Massaquou,Pujehun CBD,PUJRHUN TOWN,PANGA,SOUTHERN,PUJEHUN,,,,,-11.72139,7.35731,
Banking Agent,Rokel Commercial Bank (SL) Ltd,Cash Point,,Edward Foday Sama,RCBank kiosk Jui Junction ,FREETOWN CITY,WATERLOO RURAL,WESTERN,WESTERN RURAL,,,,,-13.14412,8.39338,
Banking Agent,Rokel Commercial Bank (SL) Ltd,Cash Point,,ABDUL SAMURA KOROMA,44 Kossoh Town Junction,FREETOWN CITY,WATERLOO RURAL,WESTERN,WESTERN RURAL,,,,,-13.0715,8.3324,
Banking Agent,Rokel Commercial Bank (SL) Ltd,Cash Point,,Macca Barrie T/A Pattawill Trade Line,Bai Bureh Road Allen town Junction,FREETOWN CITY,EAST III,WESTERN,WESTERN URBAN,,,,,-13.15541,8.42419,
Banking Agent,Rokel Commercial Bank (SL) Ltd,Cash Point,,Sheku Jalloh Jamboria,701 Bai Bureh Road,FREETOWN CITY,EAST III,WESTERN,WESTERN URBAN,,,,,-13.16909,8.45303,
Banking Agent,Rokel Commercial Bank (SL) Ltd,Cash Point,,Saheed Makanjuola ,"58B Jusu Jaka Lane,Calaba Town Last Station",FREETOWN CITY,EAST III,WESTERN,WESTERN URBAN,,,,,-13.15534,8.43138,
Banking Agent,Rokel Commercial Bank (SL) Ltd,Cash Point,,Mohamed M.Jalloh,K-Step Calabatown opposite the Mosque,FREETOWN CITY,EAST III,WESTERN,WESTERN URBAN,,,,,-13.15908,8.43687,
Banking Agent,Rokel Commercial Bank (SL) Ltd,Cash Point,,Mabinty T Kanu ,Allen Town Junction,FREETOWN CITY,EAST III,WESTERN,WESTERN URBAN,,,,,-13.15193,8.41652,
Banking Agent,Rokel Commercial Bank (SL) Ltd,Cash Point,,Ishola  Ganiyu,5 Kissy Road Clock tower opposite RCBank,FREETOWN CITY,EAST II,WESTERN,WESTERN URBAN,,,,,-13.22571,8.48792,
Banking Agent,Rokel Commercial Bank (SL) Ltd,Cash Point,,Mohamed Nabay,90 kissy road.,FREETOWN CITY,EAST II,WESTERN,WESTERN URBAN,,,,,-13.21741,8.48488,
Banking Agent,Rokel Commercial Bank (SL) Ltd,Cash Point,,Unisa Jalloh,"108 Kissy Road,opposite Staco Cinema ",FREETOWN CITY,EAST I,WESTERN,WESTERN URBAN,,,,,-13.21383,8.48366,
Banking Agent,Rokel Commercial Bank (SL) Ltd,Cash Point,,David Mohamed Tholley,RCBank Kiosk Clock Tower,FREETOWN CITY,EAST II,WESTERN,WESTERN URBAN,,,,,-13.2262,8.48808,
Banking Agent,Rokel Commercial Bank (SL) Ltd,Cash Point,,Edison Sandi Koroma,"New Road,Low Cost Junction,",FREETOWN CITY,EAST III,WESTERN,WESTERN URBAN,,,,,-13.18234,8.47125,
Banking Agent,Rokel Commercial Bank (SL) Ltd,Cash Point,,Alimamy G Bangura,72 Mountain Cut,FREETOWN CITY,CENTRAL I,WESTERN,WESTERN URBAN,,,,,-13.2279,8.47955,
Banking Agent,Rokel Commercial Bank (SL) Ltd,Cash Point,,Rasie Technology,"57 Bai Bureh Road, Shell New Road",FREETOWN CITY,EAST III,WESTERN,WESTERN URBAN,,,,,-13.19101,8.47422,
Banking Agent,Rokel Commercial Bank (SL) Ltd,Cash Point,,Binta Enterprise,55 Main Motror Road Waterloo,FREETOWN CITY,WATERLOO RURAL,WESTERN,WESTERN RURAL,,,,,-13.07011,8.33088,
Banking Agent,Rokel Commercial Bank (SL) Ltd,Cash Point,,Emmanuel S M'briwa,4 Action Street,FREETOWN CITY,CENTRAL I,WESTERN,WESTERN URBAN,,,,,-13.23261,8.4895,
Banking Agent,Rokel Commercial Bank (SL) Ltd,Cash Point,,Mohamed Fajah Bah,Kono Park Waterloo,FREETOWN CITY,KOYA RURAL,WESTERN,WESTERN RURAL,,,,,-13.03653,8.33584,
Banking Agent,Rokel Commercial Bank (SL) Ltd,Cash Point,,Umaru Y Fofanah,"PMB Junction,wellington industrial Area",FREETOWN CITY,EAST III,WESTERN,WESTERN URBAN,,,,,-13.16194,8.44405,
Banking Agent,Rokel Commercial Bank (SL) Ltd,Cash Point,,Abu Bakarr Bangura T/A Abb Family Ent,"PMB Junction,wellington industrial Area",FREETOWN CITY,EAST III,WESTERN,WESTERN URBAN,,,,,-13.16197,8.44467,
Banking Agent,Rokel Commercial Bank (SL) Ltd,Cash Point,,Karifala Manti Marrah,RCBank Kiosk Wellington Branch,FREETOWN CITY,EAST III,WESTERN,WESTERN URBAN,,,,,-13.16302,8.44595,
Banking Agent,Rokel Commercial Bank (SL) Ltd,Cash Point,,Kadrie Dumbuya T/A Bal-Dum Ent,82 Quary Road Black Tank,FREETOWN CITY,EAST III,WESTERN,WESTERN URBAN,,,,,-13.2025,8.47756,
Banking Agent,Rokel Commercial Bank (SL) Ltd,Cash Point,,Abdulai Tarawally,1 Old police road,FREETOWN CITY,EAST II,WESTERN,WESTERN URBAN,,,,,-13.22595,8.48829,
Banking Agent,Rokel Commercial Bank (SL) Ltd,Cash Point,,His Grace Tele Center,Aberdeen White House,FREETOWN CITY,WEST III,WESTERN,WESTERN URBAN,,,,,-13.28593,8.49277,
Banking Agent,Rokel Commercial Bank (SL) Ltd,Cash Point,,Hawanatu Kamara T/A Suenatu's Enterprise,16 Cape road ,FREETOWN CITY,WEST III,WESTERN,WESTERN URBAN,,,,,-13.29121,8.49372,
Banking Agent,Rokel Commercial Bank (SL) Ltd,Cash Point,,Saidu Sowe T/A Sow Investment,Sir Samuel Lewis Road,FREETOWN CITY,WEST III,WESTERN,WESTERN URBAN,,,,,-13.26939,8.48737,
Banking Agent,Rokel Commercial Bank (SL) Ltd,Cash Point,,Chibex,Sir Samuel Lewis Road,FREETOWN CITY,WEST III,WESTERN,WESTERN URBAN,,,,,-13.26955,8.48768,
Banking Agent,Rokel Commercial Bank (SL) Ltd,Cash Point,,Marie Kamara/ Thadpour Enterprise,Bus Halt Brookfields,FREETOWN CITY,WEST I,WESTERN,WESTERN URBAN,,,,,-13.24828,8.4774,
Banking Agent,Rokel Commercial Bank (SL) Ltd,Cash Point,,Turay Hassanat Ent,5 Old Railway Line Tengbeh Town,FREETOWN CITY,WEST II,WESTERN,WESTERN URBAN,,,,,-13.2561,8.47524,
Banking Agent,Rokel Commercial Bank (SL) Ltd,Cash Point,,Health For All Phamarccy ,7 Off Jomo Kenyatta Road ,FREETOWN CITY,WEST II,WESTERN,WESTERN URBAN,,,,,-13.23698,8.47278,
Banking Agent,Rokel Commercial Bank (SL) Ltd,Cash Point,,Edmunda Elizabeth Johna,Front International School,FREETOWN CITY,WEST II,WESTERN,WESTERN URBAN,,,,,-13.23495,8.47406,
Banking Agent,Rokel Commercial Bank (SL) Ltd,Cash Point,,Legloma ,PWD Pademba Rd Campbell St,FREETOWN CITY,WEST II,WESTERN,WESTERN URBAN,,,,,-13.23638,8.47582,
Banking Agent,Rokel Commercial Bank (SL) Ltd,Cash Point,,Q Way Com Ltd,Pademba Road ,FREETOWN CITY,CENTRAL I,WESTERN,WESTERN URBAN,,,,,-13.23618,8.47956,
Banking Agent,Rokel Commercial Bank (SL) Ltd,Cash Point,,Totrism is Life,State Avenue ,FREETOWN CITY,CENTRAL I,WESTERN,WESTERN URBAN,,,,,-13.23494,8.48583,
Banking Agent,Rokel Commercial Bank (SL) Ltd,Cash Point,,Mohamed Sesay,RCBank Kiosk Siaka Steven Street Branch,FREETOWN CITY,CENTRAL II,WESTERN,WESTERN URBAN,,,,,-13.23416,8.48861,
Banking Agent,Rokel Commercial Bank (SL) Ltd,Cash Point,,Augustine M. Kobba,PZ Round About,FREETOWN CITY,CENTRAL I,WESTERN,WESTERN URBAN,,,,,-13.23124,8.48854,
Banking Agent,Rokel Commercial Bank (SL) Ltd,Cash Point,,Madina Business Venture,20A Sack Ville Street,FREETOWN CITY,CENTRAL I,WESTERN,WESTERN URBAN,,,,,-13.22873,8.48731,
Banking Agent,Rokel Commercial Bank (SL) Ltd,Cash Point,,Mohamed Suma,2 Free Street,FREETOWN CITY,CENTRAL I,WESTERN,WESTERN URBAN,,,,,-13.2293,8.48735,
Banking Agent,Rokel Commercial Bank (SL) Ltd,Cash Point,,Ishmael Nat Thomas,4 Mil Street,FREETOWN CITY,CENTRAL I,WESTERN,WESTERN URBAN,,,,,-13.2318,8.48946,
Banking Agent,Rokel Commercial Bank (SL) Ltd,Cash Point,,Hassan Gibril Kargbo,PZ Garrison Street,FREETOWN CITY,CENTRAL I,WESTERN,WESTERN URBAN,,,,,-13.2314,8.48854,
Banking Agent,Rokel Commercial Bank (SL) Ltd,Cash Point,,Mustapha Kobba,5 Upper East Street,FREETOWN CITY,CENTRAL I,WESTERN,WESTERN URBAN,,,,,-13.23032,8.48807,
Banking Agent,Rokel Commercial Bank (SL) Ltd,Cash Point,,Madina Business Venture,20A Sack Ville Street,FREETOWN CITY,CENTRAL I,WESTERN,WESTERN URBAN,,,,,-13.22873,8.48731,
Banking Agent,Rokel Commercial Bank (SL) Ltd,Cash Point,,Mohamed Suma,2 Free Street,FREETOWN CITY,CENTRAL I,WESTERN,WESTERN URBAN,,,,,-13.2293,8.48735,
Banking Agent,Rokel Commercial Bank (SL) Ltd,Cash Point,,Ishmael Nat Thomas,4 Mil Street,FREETOWN CITY,CENTRAL I,WESTERN,WESTERN URBAN,,,,,-13.2318,8.48946,
Banking Agent,Rokel Commercial Bank (SL) Ltd,Cash Point,,Hassan Gibril Kargbo,PZ Garrison Street,FREETOWN CITY,CENTRAL I,WESTERN,WESTERN URBAN,,,,,-13.2314,8.48854,
Banking Agent,Rokel Commercial Bank (SL) Ltd,Cash Point,,Ibrahim Serry,PZ Round About,FREETOWN CITY,CENTRAL I,WESTERN,WESTERN URBAN,,,,,-13.23124,8.48854,
Banking Agent,Rokel Commercial Bank (SL) Ltd,Cash Point,,Amadu Jalloh,RCBank Kiosk WilberforceSt PZ,FREETOWN CITY,CENTRAL I,WESTERN,WESTERN URBAN,,,,,-13.23137,8.48871,
Banking Agent,Rokel Commercial Bank (SL) Ltd,Cash Point,,Sylvester L. Aboko-Cole T/A Aboko's Buss Centre,15 Forte Street Freetown,FREETOWN CITY,CENTRAL I,WESTERN,WESTERN URBAN,,,,,-13.23499,8.48234,
Banking Agent,Rokel Commercial Bank (SL) Ltd,Cash Point,,Star Afrik Company Limited,83 Pademba Road,FREETOWN CITY,CENTRAL I,WESTERN,WESTERN URBAN,,,,,-13.23637,8.47746,
Banking Agent,Rokel Commercial Bank (SL) Ltd,Cash Point,,Alfred U Bangura,1B Walpole Street,FREETOWN CITY,CENTRAL II,WESTERN,WESTERN URBAN,,,,,-13.23709,8.48908,
Banking Agent,Rokel Commercial Bank (SL) Ltd,Cash Point,,Marjorie C. During,RCBank Kiosk Congo Cross,FREETOWN CITY,WEST III,WESTERN,WESTERN URBAN,,,,,-13.2591,8.48286,
Banking Agent,Rokel Commercial Bank (SL) Ltd,Cash Point,,Ibrahim S. Kargbo T/A Hawa Porto Ent,Congo Cross Turn Table,FREETOWN CITY,WEST III,WESTERN,WESTERN URBAN,,,,,-13.25909,8.48314,
Banking Agent,Rokel Commercial Bank (SL) Ltd,Cash Point,,Makandeh Drug Store,89 Main Road Congotown,FREETOWN CITY,WEST I,WESTERN,WESTERN URBAN,,,,,-13.25123,8.48323,
Banking Agent,Rokel Commercial Bank (SL) Ltd,Cash Point,,Amadu B. Bah T/A De Bhohi Investment,Dwazack Junction,FREETOWN CITY,WEST II,WESTERN,WESTERN URBAN,,,,,-13.23684,8.47275,
Banking Agent,Rokel Commercial Bank (SL) Ltd,Cash Point,,Ultimate Foreign Exchange Bureau SL LTD,89 Penisular Road ,FREETOWN CITY,YORK RURAL,WESTERN,WESTERN RURAL,,,,,-13.27717,8.43158,
Banking Agent,Rokel Commercial Bank (SL) Ltd,Cash Point,,Ambchell Investment,Hill Station Choithrams Exit ,FREETOWN CITY,WEST III,WESTERN,WESTERN URBAN,,,,,-13.24871,8.45459,
Banking Agent,Rokel Commercial Bank (SL) Ltd,Cash Point,,Abubakarr Koroma,Raymond Coker Drive,FREETOWN CITY,WEST I,WESTERN,WESTERN URBAN,,,,,-13.24612,8.47669,
Banking Agent,Rokel Commercial Bank (SL) Ltd,Cash Point,,Ambchell Investment,Sawaneh Drive ,FREETOWN CITY,YORK RURAL,WESTERN,WESTERN RURAL,,,,,-13.26423,8.40324,
Banking Agent,Rokel Commercial Bank (SL) Ltd,Cash Point,,Ambchell Investment,American Embassy,FREETOWN CITY,MOUNTAIN RURAL,WESTERN,WESTERN RURAL,,,,,-13.22968,8.4515,
Banking Agent,Rokel Commercial Bank (SL) Ltd,Cash Point,,Salamatu Nyallay,RCBank kiosk Juba,FREETOWN CITY,WEST III,WESTERN,WESTERN URBAN,,,,,-13.27666,8.45228,
Banking Agent,Rokel Commercial Bank (SL) Ltd,Cash Point,,Ramesh S. Pamani,45 Krootown  Road,FREETOWN CITY,WEST I,WESTERN,WESTERN URBAN,,,,,-13.24226,8.4835,
Banking Agent,Rokel Commercial Bank (SL) Ltd,Cash Point,,Mohamed Jan Jalloh,Lumley Market,FREETOWN CITY,WEST III,WESTERN,WESTERN URBAN,,,,,-13.27229,8.45466,
Banking Agent,Rokel Commercial Bank (SL) Ltd,Cash Point,,Samuel Kamara T/A Strive Investment,1 Ophanage Street Kamaya,FREETOWN CITY,WEST II,WESTERN,WESTERN URBAN,,,,,-13.23179,8.46581,
Banking Agent,Rokel Commercial Bank (SL) Ltd,Cash Point,,Juma Sesay,1 Regent Road Lumley,FREETOWN CITY,WEST III,WESTERN,WESTERN URBAN,,,,,-13.27098,8.45462,
Banking Agent,Rokel Commercial Bank (SL) Ltd,Cash Point,,Frution Express,41c Edmas Drive Malama ,FREETOWN CITY,CENTRAL I,WESTERN,WESTERN URBAN,,,,,-13.23083,8.4901,
Banking Agent,Rokel Commercial Bank (SL) Ltd,Cash Point,,Ambchell Investment,Mansaray Drive,FREETOWN CITY,WEST II,WESTERN,WESTERN URBAN,,,,,-13.22944,8.46529,
Banking Agent,Rokel Commercial Bank (SL) Ltd,Cash Point,,Adikalie Samura T/A DELEO Investment,36 Old Railway Line Tengbeh Town,FREETOWN CITY,WEST II,WESTERN,WESTERN URBAN,,,,,-13.24794,8.47488,
Banking Agent,Rokel Commercial Bank (SL) Ltd,Cash Point,,Ambchell Investment,Wilberforce,FREETOWN CITY,WEST III,WESTERN,WESTERN URBAN,,,,,-13.26215,8.468,
Banking Agent,Rokel Commercial Bank (SL) Ltd,Cash Point,,Alie Enterprise,"2 Spurs Road, Wilberforce Bottom Mango",FREETOWN CITY,WEST III,WESTERN,WESTERN URBAN,,,,,-13.27034,8.47139,
Banking Agent,Rokel Commercial Bank (SL) Ltd,Cash Point,,Real Mack,Bottom Mango adjecent NP Filling Station,FREETOWN CITY,WEST III,WESTERN,WESTERN URBAN,,,,,-13.26192,8.46847,
Banking Agent,Rokel Commercial Bank (SL) Ltd,Cash Point,,Mohamed Sesay Peak Energy,Leister Junction Peak Energy filling station,FREETOWN CITY,MOUNTAIN RURAL,WESTERN,WESTERN RURAL,,,,,-13.21877,8.46257,
