AP_TYPE,Name of Access Point,Office Type:,AP_Attached_Facility,Attach_Facility Name,Street Address,City or town,CHIEFDOM,REGION,DISTRICT,Products Offered,Services offered,Status,Agent Code/ Branch Code,Longitude,Lattitude,Photo
MFI Credit taking,Maham Microfinance Company Limited,HQ,,,Bo Shopping Plaza,Bo,BO TOWN,SOUTHERN,BO,,,,,-11.74201,7.96012,
MFI Credit taking,CEDA Microfinance (SL) Limited,HQ,,,62 Dambala Road,Bo,BO TOWN,SOUTHERN,BO,,,,,-11.74042,7.9731,
MFI Credit taking,Mopada Microfinance SL Ltd,HQ,,,10 Braima Lane,Bo,BO TOWN,SOUTHERN,BO,,,,,-11.73756,7.94769,
MFI Credit taking,Ram Kamara Microfinance Limited,HQ,,,134 Mahei Boima Road,Bo,BO TOWN,SOUTHERN,BO,,,,,-11.73744,7.97174,
MFI Credit taking,Win Trust Investment and General Services Limited,HQ,,,43 Ngalu Road,Bo,BO TOWN,SOUTHERN,BO,,,,,-11.73567,7.96632,
MFI Credit taking,SAFE Microfinance,HQ,,,21 Suku Tamba Street,Bo,BO TOWN,SOUTHERN,BO,,,,,-11.73202,7.96418,
MFI Credit taking,Action for Rural Development (SL) Ltd,HQ,,,28 Main Sewa Road,Bo,BO TOWN,SOUTHERN,BO,,,,,-11.73201,7.95463,
MFI Credit taking,Harvest Microfinance (HaMFI) Limited,HQ,,,12 Clarence Street,Freetown,CENTRAL I,WESTERN,WESTERN URBAN,,,,,-13.23588,8.47717,
MFI Credit taking,Angel Capitalist Finance Corporation,HQ,,,49 Pademba Road,Freetown,CENTRAL I,WESTERN,WESTERN URBAN,,,,,-13.23569,8.48688,
MFI Credit taking,Source of Hope Microfinance Limited,HQ,,,74 Pademba Road,Freetown,CENTRAL I,WESTERN,WESTERN URBAN,,,,,-13.23569,8.48688,
MFI Credit taking,Eagle Capital (SL) Limited,HQ,,,49 Siaka Stevens Street,Freetown,CENTRAL I,WESTERN,WESTERN URBAN,,,,,-13.23544,8.48733,
MFI Credit taking,G. Smart Investment Limited,HQ,,,25 Rawdon Street,Freetown,CENTRAL I,WESTERN,WESTERN URBAN,,,,,-13.23268,8.48948,
MFI Credit taking,Rablatulai Microfinance,HQ,,,25 Rawdon Street,Freetown,CENTRAL I,WESTERN,WESTERN URBAN,,,,,-13.23268,8.48948,
MFI Credit taking,H&S Microfinance Limited,HQ,,,131 Circular Road,Freetown,CENTRAL I,WESTERN,WESTERN URBAN,,,,,-13.23076,8.47845,
MFI Credit taking,Staion Microfinance (SL) Limited,HQ,,,33 Circular Road,Freetown,CENTRAL I,WESTERN,WESTERN URBAN,,,,,-13.23076,8.47845,
MFI Credit taking,Sirius Microfinance (SL) Limited,HQ,,,"9 Mary St, Freetown",Freetown,CENTRAL I,WESTERN,WESTERN URBAN,,,,,-13.22967,8.48124,
MFI Credit taking,Women In Action Microfinance (SL) Limited,HQ,,,27 Sackville Street,Freetown,CENTRAL I,WESTERN,WESTERN URBAN,,,,,-13.22885,8.48751,
MFI Credit taking,Munafa Limited,HQ,,,29 Jones Street,Freetown,CENTRAL II,WESTERN,WESTERN URBAN,,,,,-13.23986,8.48084,
MFI Credit taking,Captech (SL) Limited,HQ,,,28 Campbell Street,Freetown,CENTRAL II,WESTERN,WESTERN URBAN,,,,,-13.23981,8.47782,
MFI Credit taking,Emmanuel Salaries Solutions Limited,HQ,,,83 Campbell Street,Freetown,CENTRAL II,WESTERN,WESTERN URBAN,,,,,-13.23981,8.47782,
MFI Credit taking,Payee Day Loan Company,HQ,,,4 Lightfoot Boston Street,Freetown,CENTRAL II,WESTERN,WESTERN URBAN,,,,,-13.23748,8.4878,
MFI Credit taking,Payee Day Loan Company,HQ,,,4 Lightfoot Boston Street,Freetown,CENTRAL II,WESTERN,WESTERN URBAN,,,,,-13.23748,8.4878,
MFI Credit taking,Ascend Solutions (SL) Limited,HQ,,,5 Bathurst Street,Freetown,CENTRAL II,WESTERN,WESTERN URBAN,,,,,-13.23747,8.48523,
MFI Credit taking,Association of Rural Development,HQ,,,21 Liverpool Street,Freetown,CENTRAL II,WESTERN,WESTERN URBAN,,,,,-13.23702,8.48569,
MFI Credit taking,Grassroots Gender Empowerment Movement Microfinance Limited,HQ,,,57 John Street,Freetown,CENTRAL II,WESTERN,WESTERN URBAN,,,,,-13.23697,8.48128,
MFI Credit taking,Capitol Finance Company Limited,HQ,,,36 Lightfoot Boston Street,Freetown,CENTRAL II,WESTERN,WESTERN URBAN,,,,,-13.23514,8.48965,
MFI Credit taking,Finance Salone (SL) Limited,HQ,,,2 Howe street,Freetown,CENTRAL II,WESTERN,WESTERN URBAN,,,,,-13.23318,8.48913,
MFI Credit taking,Tinada (SL) Limited,HQ,,,8 Howe Street,Freetown,CENTRAL II,WESTERN,WESTERN URBAN,,,,,-13.23318,8.48913,
MFI Credit taking,Green Circle Global Company (SL) Limited,HQ,,,15 Brass Street,Freetown,EAST I,WESTERN,WESTERN URBAN,,,,,-13.21673,8.48613,
MFI Credit taking,Living in Hope Microfinance (SL) Limited,HQ,,,41 Jenner Wrigth Road,Freetown,EAST I,WESTERN,WESTERN URBAN,,,,,-13.21141,8.48272,
MFI Credit taking,Munafa Limited,HQ,,,9 Upper Savage Square,Freetown,EAST II,WESTERN,WESTERN URBAN,,,,,-13.21886,8.48291,
MFI Credit taking,Quick and Reliable Microfinance Limited,HQ,,,133 Kissy Road,Freetown,EAST II,WESTERN,WESTERN URBAN,,,,,-13.21265,8.48316,
MFI Credit taking,Counterpart in Community Development and Microfinance Company Limited,HQ,,,350 Bai Bureh Road,Freetown,EAST III,WESTERN,WESTERN URBAN,,,,,-13.20276,8.47923,
MFI Credit taking,Grassroot MFI Limited,HQ,,,248 Bai Bureh Road,Freetown,EAST III,WESTERN,WESTERN URBAN,,,,,-13.20276,8.47923,
MFI Credit taking,Harvest Microfinance (HaMFI) Limited,HQ,,,152 Bai Bureh Road,Freetown,EAST III,WESTERN,WESTERN URBAN,,,,,-13.20276,8.47923,
MFI Credit taking,Link Financial Services Limited,HQ,,,51 Bai Bureh Road,Freetown,EAST III,WESTERN,WESTERN URBAN,,,,,-13.20276,8.47923,
MFI Credit taking,Social Aid Volunteers Microfinance (SL) Limited,HQ,,,157 Bai Bureh Road,Freetown,EAST III,WESTERN,WESTERN URBAN,,,,,-13.20276,8.47923,
MFI Credit taking,ZAHLANFX Limited,HQ,,,377 bai Bureh Road,Freetown,EAST III,WESTERN,WESTERN URBAN,,,,,-13.20276,8.47923,
MFI Credit taking,Betteh Life Microcredit and Investments Limited,HQ,,,1 Kojuma Street,Freetown,EAST III,WESTERN,WESTERN URBAN,,,,,-13.1944,8.46615,
MFI Credit taking,Capital One Microfinance,HQ,,,"5 Mansaray Lane, Calaba Town",Freetown,EAST III,WESTERN,WESTERN URBAN,,,,,-13.15958,8.4333,
MFI Credit taking,Primhawill Microfinance Limited,HQ,,,"9K Sayenu Street,  Calaba Town",Freetown,EAST III,WESTERN,WESTERN URBAN,,,,,-13.15578,8.43128,
MFI Credit taking,Progressive Microfinance SL Limited,HQ,,,"4 Kargbo Lane, Mahera Road",Lungi,KAFFU BULLOM,NORTH WESTERN,PORT LOKO,,,,,-13.19785,8.60541,
MFI Credit taking,Richa Faith Microfinance ,HQ,,,"1 Kamanda Street, Bo",KissyTown,KENEMA CITY,EASTERN,KENEMA,,,,,-11.19536,7.86285,
MFI Credit taking,Global Osusu Savings and Credit Association SL Ltd,HQ,,,6 Circular Road,Kenema,KENEMA CITY,EASTERN,KENEMA,,,,,-11.18898,7.87359,
MFI Credit taking,Trust Microfinance & Title Loans (SL) Limited,HQ,,,19 Bockarie Gbay Street,kenema,KENEMA CITY,EASTERN,KENEMA,,,,,-11.18213,7.87186,
MFI Credit taking,GSA Enterprises (SL) Limited,HQ,,,9 Combema Road,Kenema,KENEMA CITY,EASTERN,KENEMA,,,,,-11.1756,7.87642,
MFI Credit taking,Code Salone Microfinance Company (SL) Limited,HQ,,,28 Kamanda Street,Koidu,KOIDU CITY,EASTERN,KONO,,,,,-10.97469,8.64359,
MFI Credit taking,ASA Microfinance (SL) Limited,HQ,,,Belabu Pendembu Road,Kailahun,LUAWA,EASTERN,KAILAHUN,,,,,-10.57531,8.27386,
MFI Credit taking,Payee Day Loan Company ,HQ,,,6 Station Road,Makeni,MAKENI CITY,NORTHERN,BOMBALI,,,,,-12.04021,8.88665,
MFI Credit taking,Edunations Microfinance Limited ,HQ,,,14 John Tucker Street,Makeni,MAKENI CITY,NORTHERN,BOMBALI,,,,,-12.03757,8.87202,
MFI Credit taking,Loans and Savings Management (LSM),HQ,,,Opposite Court Barry Mafaray Village,Mafaray Village,SAFROKO LIMBA,NORTHERN,BOMBALI,,,,,-11.96512,8.95632,
MFI Credit taking,Munafa Limited,HQ,,,35 Carlmont Road,Waterloo,WATERLOO RURAL,WESTERN,WESTERN RURAL,,,,,-13.07043,8.33178,
MFI Credit taking,TXT Africa (SL) Limited,HQ,,,2 Old Railway Line,Freetown,WEST II,WESTERN,WESTERN URBAN,,,,,-13.25841,8.47534,
MFI Credit taking,Imperi Trust SL Ltd,HQ,,,9 Bailey Street,Freetown,WEST II,WESTERN,WESTERN URBAN,,,,,-13.24323,8.47574,
MFI Credit taking,Wintays Finance Limited,HQ,,,14 dillet Street,Freetown,WEST II,WESTERN,WESTERN URBAN,,,,,-13.2388,8.47686,
MFI Credit taking,WATU (SL) Limited,HQ,,,7 Sir Samuel Lewis Road,Freetown.,WEST III,WESTERN,WESTERN URBAN,,,,,-13.28101,8.49223,
MFI Credit taking,Development Initiative  Programme Microfinance (DIProM) Limited,HQ,,,6 Peninsular Road,Freetown,WEST III,WESTERN,WESTERN URBAN,,,,,-13.27477,8.45292,
MFI Credit taking,Munafa Limited,HQ,,,83 Peninsular Road,Freetown,WEST III,WESTERN,WESTERN URBAN,,,,,-13.27477,8.45292,
MFI Credit taking,Oya Micro-Credit Company Ltd,HQ,,,91 Wilkinson Road,Freetown,WEST III,WESTERN,WESTERN URBAN,,,,,-13.27337,8.47673,
MFI Credit taking,Royal Microfinance Limited,HQ,,,20 Wilkinson Road,Freetown,WEST III,WESTERN,WESTERN URBAN,,,,,-13.27337,8.47673,
MFI Credit taking,Goshen Micro Finance Market Limited,HQ,,,25 Spur Road,Freetown,WEST III,WESTERN,WESTERN URBAN,,,,,-13.26872,8.4677,
MFI Credit taking,ASA Microfinance (SL) Limited,HQ,,,"64 Lumley Road, Wilberforce",Freetown,WEST III,WESTERN,WESTERN URBAN,,,,,-13.26838,8.46312,
MFI Credit taking,ASA Microfinance (SL) Limited,HQ,,,"64 Lumley Road, Wilberforce",Freetown,WEST III,WESTERN,WESTERN URBAN,,,,,-13.26838,8.46312,
MFI Credit taking,BRAC Microfinance (SL) Limited,HQ,,,"23 Old Lumley Road,  Wilberforce ",Freetown,WEST III,WESTERN,WESTERN URBAN,,,,,-13.26733,8.46588,
MFI Credit taking,Fech-IT Global Limited,HQ,,,"32 Gordon Drive, regent Road, Lumley",Freetown,WEST III,WESTERN,WESTERN URBAN,,,,,-13.26539,8.45088,
MFI Credit taking,Airvantage Technology SL Ltd,HQ,,,29 Charles Street,Freetown,WEST III,WESTERN,WESTERN URBAN,,,,,-13.26441,8.47522,
MFI Credit taking,Canaan Land Microfinance (SL) Limited,HQ,,,35 Charles Street,Freetown,WEST III,WESTERN,WESTERN URBAN,,,,,-13.26441,8.47522,
MFI Credit taking,Empire Solution (SL) limited,HQ,,,13 Regent Road Lumley,Freetown,WEST III,WESTERN,WESTERN URBAN,,,,,-13.26353,8.45203,
MFI Credit taking,Gracemon Investment Company Limited,HQ,,,"55 Regent Road, Lumley",Freetown,WEST III,WESTERN,WESTERN URBAN,,,,,-13.26353,8.45203,
MFI Credit taking,JEM Microcredit Solutions Limited,HQ,,,"20C Regent Road, Lumley",Freetown,WEST III,WESTERN,WESTERN URBAN,,,,,-13.26353,8.45203,
MFI Credit taking,AfriCredit (SL) Limited,HQ,,,"1 Pivot Street, Wilberforce",Freetown,WEST III,WESTERN,WESTERN URBAN,,,,,-13.26321,8.47518,
MFI Credit taking,Trus-SL,HQ,,,10 Murray Town Road,Freetown,WEST III,WESTERN,WESTERN URBAN,,,,,-13.26114,8.48687,
MFI Credit taking,Harvest Microfinance (HaMFI) Limited,HQ,,,Freetown Lumley Mall (B10),Freetown,WEST III,WESTERN,WESTERN URBAN,,,,,-13.26102,8.47983,
