AP_TYPE,Name of Access Point,Office Type:,AP_Attached_Facility,Attach_Facility Name,Street Address,City or town,CHIEFDOM,REGION,DISTRICT,Products Offered,Services offered,Status,Agent Code/ Branch Code,Longitude,Lattitude,Photo
POS Terminal,ECOBANK (SL) LIMITED,Cash Point,Hotel,DOHAS HOTEL AND GEN. SERVICES ,103 TOWAMA CHIEFDOM,Bo,BO TOWN,SOUTHERN,BO,,,,,-11.7587,7.94472,
POS Terminal,ECOBANK (SL) LIMITED,Cash Point,Supermarket,Choithram Supermarket,5 Rawdon Street,Freetown,CENTRAL I,WESTERN,WESTERN URBAN,,,,,-13.23268,8.48948,
POS Terminal,ECOBANK (SL) LIMITED,Cash Point,Restaurant,CROWN BAKERY AND CONFECTIONERY,05 WILBERFORCE STREET,Freetown,CENTRAL I,WESTERN,WESTERN URBAN,,,,,-13.23136,8.48875,
POS Terminal,ECOBANK (SL) LIMITED,Cash Point,Shopping Center,THE COFFEE ZONE LIMITED,7 & 9 WILBERFORCE STREET,Freetown,CENTRAL I,WESTERN,WESTERN URBAN,,,,,-13.23136,8.48875,
POS Terminal,ECOBANK (SL) LIMITED,Cash Point,Entertainment Center,Subojeh Ventres,39 Brook Street,Freetown,CENTRAL II,WESTERN,WESTERN URBAN,,,,,-13.23972,8.48536,
POS Terminal,ECOBANK (SL) LIMITED,Cash Point,Shopping Center,RAJU'S ELECTRICALS SL LTD,71A SIAKA STEVENS STREET,Freetown,CENTRAL II,WESTERN,WESTERN URBAN,,,,,-13.23746,8.48523,
POS Terminal,ECOBANK (SL) LIMITED,Cash Point,Bank,ECOBANK HEAD OFFICE BRANCH    ,ECOBANK HEAD OFFICE BRANCH,Freetown,CENTRAL II,WESTERN,WESTERN URBAN,,,,,-13.23454,8.49022,
POS Terminal,ECOBANK (SL) LIMITED,Cash Point,Hotel,Lungi Gateway Hotel,15 Charlotte Street,Freetown,CENTRAL II,WESTERN,WESTERN URBAN,,,,,-13.23412,8.48937,
POS Terminal,ECOBANK (SL) LIMITED,Cash Point,Boutique,MAIN BOWL FASHION HOUSE       ,1 MABANTA ROAD,Makeni,GBANTI,NORTHERN,BOMBALI,,,,,-12.05739,8.93779,
POS Terminal,ECOBANK (SL) LIMITED,Cash Point,Entertainment Center,Day1 Lounge- General,"160 Bo-Kenema Hihway, Bo",Bo,KAKUA,SOUTHERN,BO,,,,,-11.75584,7.95893,
POS Terminal,ECOBANK (SL) LIMITED,Cash Point,Hotel,PALOMA GUEST HOUSE,10 SAHARA STREET,Kenema,KENEMA CITY,EASTERN,KENEMA,,,,,-11.19154,7.88054,
POS Terminal,ECOBANK (SL) LIMITED,Cash Point,Supermarket,Monoprix Supermarket,122 Freetown- Makeni Highway,Makeni,MAKARI,NORTHERN,BOMBALI,,,,,-12.07633,8.88352,
POS Terminal,ECOBANK (SL) LIMITED,Cash Point,Hotel,Wusum Hotel,65 Teko Road,Makeni,MAKENI CITY,NORTHERN,BOMBALI,,,,,-12.04182,8.88367,
POS Terminal,ECOBANK (SL) LIMITED,Cash Point,Office,Covid 19 La Account,"20 Mandalay Street, Kingtom",Freetown,WEST I,WESTERN,WESTERN URBAN,,,,,-13.25191,8.48911,
POS Terminal,ECOBANK (SL) LIMITED,Cash Point,Shopping Center,BLUE CIRCLE DUTY FREE LTD,3 MAIN MOTOR ROAD,Freetown,WEST I,WESTERN,WESTERN URBAN,,,,,-13.24901,8.47646,
POS Terminal,ECOBANK (SL) LIMITED,Cash Point,Supermarket,Freetown Direct Supermarket,2A Murray Town Road,Freetown,WEST II,WESTERN,WESTERN URBAN,,,,,-13.25965,8.48448,
POS Terminal,ECOBANK (SL) LIMITED,Cash Point,Supermarket,Affordables Mini Market (SL) Limited,"1B Kigharman Road, Brookfields",Freetown,WEST II,WESTERN,WESTERN URBAN,,,,,-13.24805,8.47243,
POS Terminal,ECOBANK (SL) LIMITED,Cash Point,Hotel,HILL TOP HOTEL,JOMO KENYATTA ROAD,Freetown,WEST II,WESTERN,WESTERN URBAN,,,,,-13.23667,8.47349,
POS Terminal,ECOBANK (SL) LIMITED,Cash Point,Hotel,Bintumani (Bugg) Hotel,"11 Man of War Bay, Aberdeen",Freetown,WEST III,WESTERN,WESTERN URBAN,,,,,-13.295,8.4955,
POS Terminal,ECOBANK (SL) LIMITED,Cash Point,Hotel,Home Suites Hotel,"78A Cape Road Bintumani Drive, Aberdeen",Freetown,WEST III,WESTERN,WESTERN URBAN,,,,,-13.29134,8.49371,
POS Terminal,ECOBANK (SL) LIMITED,Cash Point,Hotel,MAMABA POINT HOTEL SL LTD,80 CAPE ROAD ABERDEEN,Freetown,WEST III,WESTERN,WESTERN URBAN,,,,,-13.29008,8.49335,
POS Terminal,ECOBANK (SL) LIMITED,Cash Point,Hotel,GOLDEN TULIP ESSENTIAL KIMBIMA,OFF CAPE ROAD ABERDEEN,Freetown,WEST III,WESTERN,WESTERN URBAN,,,,,-13.29007,8.49854,
POS Terminal,ECOBANK (SL) LIMITED,Cash Point,Entertainment Center,B-ONE Arcade Games Center Limited,"80 Cape Road, Aberdeen",Freetown,WEST III,WESTERN,WESTERN URBAN,,,,,-13.28863,8.49333,
POS Terminal,ECOBANK (SL) LIMITED,Cash Point,Restaurant,TOMA BOUTIQUE & RESTAURANT    ,58 CAPR ROAD ABERDEEN,Freetown,WEST III,WESTERN,WESTERN URBAN,,,,,-13.28425,8.49395,
POS Terminal,ECOBANK (SL) LIMITED,Cash Point,Hotel,ATLANTIC LUMLEY HOTEL LTD,84 LUMLEY BEACH ROAD FREETOWN,Freetown,WEST III,WESTERN,WESTERN URBAN,,,,,-13.28409,8.4767,
POS Terminal,ECOBANK (SL) LIMITED,Cash Point,Hotel,PEARL RESIDENCE & RESTURANT,14 LUMLEY BEACH ROAD,Freetown,WEST III,WESTERN,WESTERN URBAN,,,,,-13.28409,8.4767,
POS Terminal,ECOBANK (SL) LIMITED,Cash Point,Restaurant,RAJAA NASSIB EL-JAWHARI,54 LUMLEY BEACH ROAD LUMLEY,Freetown,WEST III,WESTERN,WESTERN URBAN,,,,,-13.28409,8.4767,
POS Terminal,ECOBANK (SL) LIMITED,Cash Point,Hotel,SIERRA PLAMS RESORT LIMITED,75 LUMLEY BEACH ROAD LUMLEY,Freetown,WEST III,WESTERN,WESTERN URBAN,,,,,-13.28409,8.4767,
POS Terminal,ECOBANK (SL) LIMITED,Cash Point,Hotel,Family Kingdom,"9 Lumley Beach Road, Aberdeen",Freetown,WEST III,WESTERN,WESTERN URBAN,,,,,-13.28409,8.4767,
POS Terminal,ECOBANK (SL) LIMITED,Cash Point,Hotel,Radisson Blu Hotel,"17 Lumley Beach Road, Aberdeen",Freetown,WEST III,WESTERN,WESTERN URBAN,,,,,-13.28409,8.4767,
POS Terminal,ECOBANK (SL) LIMITED,Cash Point,Entertainment Center,Pulse Restaurant and Bar (SL) Limited,"55 Sir Samuel Lewis Road, Aberdeen",Freetown,WEST III,WESTERN,WESTERN URBAN,,,,,-13.28101,8.49223,
POS Terminal,ECOBANK (SL) LIMITED,Cash Point,Supermarket,"Goodies Supermarket, Juba",Juba Hills,Freetown,WEST III,WESTERN,WESTERN URBAN,,,,,-13.27549,8.45312,
POS Terminal,ECOBANK (SL) LIMITED,Cash Point,Resturant,APG 23 COMPANY LIMITED        ,"APG COMPANY LTD. BEACH ROAD, LUMLEY",Freetown,WEST III,WESTERN,WESTERN URBAN,,,,,-13.27539,8.45956,
POS Terminal,ECOBANK (SL) LIMITED,Cash Point,Restaurant,CROWN EXPRESS,125 WILKINSON ROAD,Freetown,WEST III,WESTERN,WESTERN URBAN,,,,,-13.27342,8.47655,
POS Terminal,ECOBANK (SL) LIMITED,Cash Point,Hotel,METRO HOTEL,184 WILKINSON ROAD,Freetown,WEST III,WESTERN,WESTERN URBAN,,,,,-13.27342,8.47655,
POS Terminal,ECOBANK (SL) LIMITED,Cash Point,Hotel,NALI SPA,129C WILKINSON ROAD,Freetown,WEST III,WESTERN,WESTERN URBAN,,,,,-13.27342,8.47655,
POS Terminal,ECOBANK (SL) LIMITED,Cash Point,Entertainment Center,Basha Restaurant,73A Wilkinson Road,Freetown,WEST III,WESTERN,WESTERN URBAN,,,,,-13.27337,8.47673,
POS Terminal,ECOBANK (SL) LIMITED,Cash Point,Bank,ECOBANK (SL) LIMITED,125 Wilkinson Road,Freetown,WEST III,WESTERN,WESTERN URBAN,,,,,-13.27337,8.47673,
POS Terminal,ECOBANK (SL) LIMITED,Cash Point,Supermarket,Monoprix Supermarket,4C Wilkinson Road,Freetown,WEST III,WESTERN,WESTERN URBAN,,,,,-13.27337,8.47673,
POS Terminal,ECOBANK (SL) LIMITED,Cash Point,Shopping Center,Jaibalaji Store,73B Wilksinson Road,Freetown,WEST III,WESTERN,WESTERN URBAN,,,,,-13.27222,8.47832,
POS Terminal,ECOBANK (SL) LIMITED,Cash Point,Entertainment Center,Plaza 38,38 Spur Road,Freetown,WEST III,WESTERN,WESTERN URBAN,,,,,-13.26924,8.46179,
POS Terminal,ECOBANK (SL) LIMITED,Cash Point,Hotel,Country Lodge Complex,51 Hill Station,Freetown,WEST III,WESTERN,WESTERN URBAN,,,,,-13.25394,8.45941,
POS Terminal,ECOBANK (SL) LIMITED,Cash Point,Shopping Center,Abuauodi (SL)Limited,"1 Zara Lane, Goderich",Freetown,YORK RURAL,WESTERN,WESTERN RURAL,,,,,-13.27779,8.42737,
POS Terminal,ECOBANK (SL) LIMITED,Cash Point,Hotel,OCCASION ENTERPRISE           ,1 ENTERPRENEORIAL AVENUE LAKKA BEACH,Freetown,YORK RURAL,WESTERN,WESTERN RURAL,,,,,-13.26844,8.3978,
POS Terminal,ECOBANK (SL) LIMITED,Cash Point,Hotel,"The Place Resort, Tokeh","Sweet Salone, Tokeh Beach",Freetown,YORK RURAL,WESTERN,WESTERN RURAL,,,,,-13.18943,8.31498,
POS Terminal,GT Bank SL Limited,Cash Point,Travel Agency,Waheguru Travels,2 Lightfoot Boston Street,Freetown,CENTRAL I,WESTERN,WESTERN URBAN,,,,,-13.23531,8.48748,
POS Terminal,GT Bank SL Limited,Cash Point,Supermarket,KA & TA SAWLAN,19 SANI ABACHA STREET,Freetown,CENTRAL I,WESTERN,WESTERN URBAN,,,,,-13.22951,8.48844,
POS Terminal,GT Bank SL Limited,Cash Point,Travel Agency,Beyond Border,22 Liverpool St,Freetown,CENTRAL II,WESTERN,WESTERN URBAN,,,,,-13.23702,8.48569,
POS Terminal,GT Bank SL Limited,Cash Point,General Mechandise,Ishmarie Enterprise,3 Walpole Street,Freetown,CENTRAL II,WESTERN,WESTERN URBAN,,,,,-13.23626,8.48795,
POS Terminal,GT Bank SL Limited,Cash Point,Travel Agency,IPC SSS  ,21-23 SIAKA STEVEN STREET,Freetown,CENTRAL II,WESTERN,WESTERN URBAN,,,,,-13.23432,8.48882,
POS Terminal,GT Bank SL Limited,Cash Point,Supermarket,T. Choithram & Sons Supermarket,14-16 Rawdon Street,Freetown,CENTRAL II,WESTERN,WESTERN URBAN,,,,,-13.23295,8.49007,
POS Terminal,GT Bank SL Limited,Cash Point,Pharmacy,City Pharmacy,18 Wilberforce ST,Freetown,CENTRAL II,WESTERN,WESTERN URBAN,,,,,-13.23285,8.49086,
POS Terminal,GT Bank SL Limited,Cash Point,Restaurant,CROWN BAKERY W/FORCE ST,"5 WILBREFORCE STREET, FREETOWN",Freetown,CENTRAL II,WESTERN,WESTERN URBAN,,,,,-13.23272,8.49078,
POS Terminal,GT Bank SL Limited,Cash Point,Restaurant,BIG BITE SNACKS,113 Campbell Street,Freetown,CENTRAL II,WESTERN,WESTERN URBAN,,,,,-13.23222,8.48996,
POS Terminal,GT Bank SL Limited,Cash Point,Supermarket,T. Choithram & Sons Supermarket WELLING,Wellington,Freetown,EAST III,WESTERN,WESTERN URBAN,,,,,-13.16136,8.44241,
POS Terminal,GT Bank SL Limited,Cash Point,Duty Free Shop,AAH Lungi Airport Duty Free,LUNGI DUTY FREE SHOP,Lungi,KAFFU BULLOM,NORTH WESTERN,PORT LOKO,,,,,-13.19625,8.61638,
POS Terminal,GT Bank SL Limited,Cash Point,Restaurant,COFFE ZONE LTD,LUNGI,Lungi,KAFFU BULLOM,NORTH WESTERN,PORT LOKO,,,,,-13.19625,8.61638,
POS Terminal,GT Bank SL Limited,Cash Point,Aviation,Summa Airport,Lungi Airport,Lungi,KAFFU BULLOM,NORTH WESTERN,PORT LOKO,,,,,-13.19625,8.61638,
POS Terminal,GT Bank SL Limited,Cash Point,Hospital,Ami Expeditionary,18A Mudge Farm Off Aberdeen,Freetown,KAFFU BULLOM,NORTH WESTERN,PORT LOKO,,,,,-13.18969,8.6185,
POS Terminal,GT Bank SL Limited,Cash Point,Hospitality/Hotel,Wusum Hotel,"65 Teko Road, Makeni",Makeni,MAKENI CITY,NORTHERN,BOMBALI,,,,,-12.03336,8.88088,
POS Terminal,GT Bank SL Limited,Cash Point,Supermarket,MS Trading,Lunsar,Lunsar,MARAMPA,NORTH WESTERN,PORT LOKO,,,,,-12.53536,8.68763,
POS Terminal,GT Bank SL Limited,Cash Point,Supermarket,City Supermarket,162 Main Hillstation,Freetown,MOUNTAIN RURAL,WESTERN,WESTERN RURAL,,,,,-13.24109,8.45264,
POS Terminal,GT Bank SL Limited,Cash Point,Restaurant,SSL TAKE AWAY,1 FODAY DRIVE OFF REGENT,Freetown,MOUNTAIN RURAL,WESTERN,WESTERN RURAL,,,,,-13.23539,8.4493,
POS Terminal,GT Bank SL Limited,Cash Point,General Mechandise,Sierra Computer S/L LTD,20 Siaka Steven Street,Freetown,WEST I,WESTERN,WESTERN URBAN,,,,,-13.23995,8.48292,
POS Terminal,GT Bank SL Limited,Cash Point,Supermarket,T. Choithram & Sons Supermarket Krootown ,Krootown Road ,Freetown,WEST I,WESTERN,WESTERN URBAN,,,,,-13.23937,8.48343,
POS Terminal,GT Bank SL Limited,Cash Point,Mini Mart,Affordables Mini Mart,Kingharman Road,Freetown,WEST II,WESTERN,WESTERN URBAN,,,,,-13.24826,8.47365,
POS Terminal,GT Bank SL Limited,Cash Point,Restaurant,Mobonde Bar & Resturant,19 Kingharman Road,Freetown,WEST II,WESTERN,WESTERN URBAN,,,,,-13.2469,8.47129,
POS Terminal,GT Bank SL Limited,Cash Point,Hospitality/Hotel,HILL TOP HOTEL GROUP,JOMO KENYATTA RD,Freetown,WEST II,WESTERN,WESTERN URBAN,,,,,-13.24224,8.47147,
POS Terminal,GT Bank SL Limited,Cash Point,Hospitality/Hotel,The Lead Business Living,OFF CAPE ROAD ABERDEEN,Freetown,WEST III,WESTERN,WESTERN URBAN,,,,,-13.29482,8.49432,
POS Terminal,GT Bank SL Limited,Cash Point,Restaurant,Lagonda CAPE LEISURE RESTAURENT,Lagoonda COMPLEX  ABERDEEN,Freetown,WEST III,WESTERN,WESTERN URBAN,,,,,-13.29436,8.49645,
POS Terminal,GT Bank SL Limited,Cash Point,Restaurant,Mamz Lounge & Beach Bar,1 Garden Drive Lumley,Freetown,WEST III,WESTERN,WESTERN URBAN,,,,,-13.29244,8.49261,
POS Terminal,GT Bank SL Limited,Cash Point,Hospitality/Hotel,THE FAMILY KINGDOM,9 LUMLEY BEACH RD ABERDEEN,Freetown,WEST III,WESTERN,WESTERN URBAN,,,,,-13.2918,8.49281,
POS Terminal,GT Bank SL Limited,Cash Point,Travel Agency,IPC RADISON BLUE  01,ABERDEEN BEACH ROAD,Freetown,WEST III,WESTERN,WESTERN URBAN,,,,,-13.28985,8.49242,
POS Terminal,GT Bank SL Limited,Cash Point,Hospitality/Hotel,BINTUMANI HOTEL,12 MAN OF WAR BAY ABERDEEN,Freetown,WEST III,WESTERN,WESTERN URBAN,,,,,-13.28831,8.49724,
POS Terminal,GT Bank SL Limited,Cash Point,Transportation,Sea Coach ,70A Sir Samuel Lewis Road,Freetown,WEST III,WESTERN,WESTERN URBAN,,,,,-13.28821,8.49211,
POS Terminal,GT Bank SL Limited,Cash Point,Hospitality/Hotel,HOME SUITES HOTEL LTD,78 CAPE ROAD ABERDEEN,Freetown,WEST III,WESTERN,WESTERN URBAN,,,,,-13.28731,8.49486,
POS Terminal,GT Bank SL Limited,Cash Point,Restaurant,Olba SL Ltd,LUMLEY BEACH ROAD,Freetown,WEST III,WESTERN,WESTERN URBAN,,,,,-13.28515,8.47928,
POS Terminal,GT Bank SL Limited,Cash Point,Hospitality/Hotel,SIERRA PALMS RESORT,75 LUMLEY BEACH ROAD,Freetown,WEST III,WESTERN,WESTERN URBAN,,,,,-13.28513,8.4797,
POS Terminal,GT Bank SL Limited,Cash Point,Cosmetics,Star Hair Beauty Product,12 Lumley Beach Rd,Freetown,WEST III,WESTERN,WESTERN URBAN,,,,,-13.28409,8.4767,
POS Terminal,GT Bank SL Limited,Cash Point,Hospitality/Hotel,WEST AFRICAN HOLDING,17 Lumley Beach Rd,Freetown,WEST III,WESTERN,WESTERN URBAN,,,,,-13.28409,8.4767,
POS Terminal,GT Bank SL Limited,Cash Point,Hospitality/Hotel,ATLANTIC HOTEL LUMLEY,84 LUMLEY BEACH ROAD,Freetown,WEST III,WESTERN,WESTERN URBAN,,,,,-13.28392,8.47773,
POS Terminal,GT Bank SL Limited,Cash Point,Hospitality/Hotel,MEDRIE INTERNATIONAL HOTEL,36 Lumley Beach Road,Freetown,WEST III,WESTERN,WESTERN URBAN,,,,,-13.2839,8.47695,
POS Terminal,GT Bank SL Limited,Cash Point,Hospitality/Hotel,Pearl Residence,14 Lumley Beach Road,Freetown,WEST III,WESTERN,WESTERN URBAN,,,,,-13.28373,8.47595,
POS Terminal,GT Bank SL Limited,Cash Point,Restaurant,DECODE S/L LTD,LUMLEY BEACH ROAD,Freetown,WEST III,WESTERN,WESTERN URBAN,,,,,-13.28278,8.47397,
POS Terminal,GT Bank SL Limited,Cash Point,Spa,GOLDEN SUN SPA LE,2 OFF CAPE ROAD ABERDEEN,Freetown,WEST III,WESTERN,WESTERN URBAN,,,,,-13.28129,8.49261,
POS Terminal,GT Bank SL Limited,Cash Point,Supermarket,KA & TA SAWLAN Wilkinson Rd,97 Wilkinson Road,Freetown,WEST III,WESTERN,WESTERN URBAN,,,,,-13.27559,8.47466,
POS Terminal,GT Bank SL Limited,Cash Point,Supermarket,KA & TA SAWLAN Aberdeen,"58 Sir Samuel Lewis Road, Aberdeen",Freetown,WEST III,WESTERN,WESTERN URBAN,,,,,-13.27528,8.49304,
POS Terminal,GT Bank SL Limited,Cash Point,Pharmacy & Cosmetics,NOUNY PHARMACY,113 Wilkinson Road,Freetown,WEST III,WESTERN,WESTERN URBAN,,,,,-13.27518,8.46798,
POS Terminal,GT Bank SL Limited,Cash Point,Local Clothing/Jewleries,ZOE GEMZ,SEA COACH ABERDEEN,Freetown,WEST III,WESTERN,WESTERN URBAN,,,,,-13.27432,8.49315,
POS Terminal,GT Bank SL Limited,Cash Point,Supermarket,Freetown Mall,"169 Wilkinson Road, Freetown",Freetown,WEST III,WESTERN,WESTERN URBAN,,,,,-13.27428,8.46763,
POS Terminal,GT Bank SL Limited,Cash Point,RESTURANT,Crown Xpress ,125 Wilkinson Rd,Freetown,WEST III,WESTERN,WESTERN URBAN,,,,,-13.27394,8.46659,
POS Terminal,GT Bank SL Limited,Cash Point,Construction,Hema's Construction,77 Wilkinson Rd,Freetown,WEST III,WESTERN,WESTERN URBAN,,,,,-13.27342,8.47655,
POS Terminal,GT Bank SL Limited,Cash Point,Supermarket,Freetown Supermarket,"137 Wilkinson Road, Freetown",Freetown,WEST III,WESTERN,WESTERN URBAN,,,,,-13.2725,8.46277,
POS Terminal,GT Bank SL Limited,Cash Point,Restaurant,Accra Restaurant&Lounge,170 Wilkinson Rd,Freetown,WEST III,WESTERN,WESTERN URBAN,,,,,-13.27211,8.46273,
POS Terminal,GT Bank SL Limited,Cash Point,Auto-repairs,CERRA AUTOMOTIVE,69 WILKINSON ROAD,Freetown,WEST III,WESTERN,WESTERN URBAN,,,,,-13.27193,8.47898,
POS Terminal,GT Bank SL Limited,Cash Point,Hospitality/Hotel,METRO HOTEL,184 Wilkinson Road,Freetown,WEST III,WESTERN,WESTERN URBAN,,,,,-13.27168,8.46172,
POS Terminal,GT Bank SL Limited,Cash Point,Travel Agency,WAKANOW,4 Hill Side Bypass Road,Freetown,WEST III,WESTERN,WESTERN URBAN,,,,,-13.27162,8.45504,
POS Terminal,GT Bank SL Limited,Cash Point,Supermarket,KA & TA SAWLAN Spur Rd,26 Spur Road,Freetown,WEST III,WESTERN,WESTERN URBAN,,,,,-13.26879,8.46772,
POS Terminal,GT Bank SL Limited,Cash Point,HOSPITAL,Apex Optics Ltd,19 SYKE SREET,Freetown,WEST III,WESTERN,WESTERN URBAN,,,,,-13.26649,8.48694,
POS Terminal,GT Bank SL Limited,Cash Point,Saloon/ Bar,The Beauty Bar,25 Wilkinson Road,Freetown,WEST III,WESTERN,WESTERN URBAN,,,,,-13.26511,8.48535,
POS Terminal,GT Bank SL Limited,Cash Point,Supermarket,MONOPRIX SUPERMARKET,4C  WILKINSON ROAD FREETOWN,Freetown,WEST III,WESTERN,WESTERN URBAN,,,,,-13.26159,8.48541,
POS Terminal,GT Bank SL Limited,Cash Point,Liquror Store,SPIRITS & WINE BOUTIQUE LTD,39 Murray Town Rd,Freetown,WEST III,WESTERN,WESTERN URBAN,,,,,-13.26139,8.48775,
POS Terminal,GT Bank SL Limited,Cash Point,Restaurant,The Country Lodge Complex,HS 51 Hill Station,Freetown,WEST III,WESTERN,WESTERN URBAN,,,,,-13.25618,8.45674,
POS Terminal,GT Bank SL Limited,Cash Point,General Mechandise,Medhal Associates & Prosport,"54 Regent Street,Hill Station",Freetown,WEST III,WESTERN,WESTERN URBAN,,,,,-13.25415,8.46153,
POS Terminal,GT Bank SL Limited,Cash Point,Hospitality/Hotel,2 Seasons Resort,Tokeh Village,Freetown,YORK RURAL,WESTERN,WESTERN RURAL,,,,,-13.19823,8.32786,
POS Terminal,GT Bank SL Limited,Cash Point,Restaurant,Sweet Salone Tokeh (Restaurant),TOKEH VILLAGE,Tokeh,YORK RURAL,WESTERN,WESTERN RURAL,,,,,-13.1957,8.31486,
POS Terminal,GT Bank SL Limited,Cash Point,Hospitality/Hotel,Tokeh Beach Resort ,Tokeh Village,Tokeh,YORK RURAL,WESTERN,WESTERN RURAL,,,,,-13.1957,8.31486,
POS Terminal,GT Bank SL Limited,Cash Point,Hospitality/Hotel,DALTON BANANA,BANANA ISLAND,Kent,YORK RURAL,WESTERN,WESTERN RURAL,,,,,-13.19439,8.13817,
POS Terminal,GT Bank SL Limited,Cash Point,Transportation,Saful Rides,67 Sir Samuel Lewis Road,Freetown,YORK RURAL,WESTERN,WESTERN RURAL,,,,,-13.15438,8.21778,
POS Terminal,Zenith Bank (SL) Ltd,Cash Point,,T.CHOITRAM & SONS LIMITED,14-16 Rawdon Street,Freetown,CENTRAL I,WESTERN,WESTERN URBAN,,,,,-13.23268,8.48948,
POS Terminal,Zenith Bank (SL) Ltd,Cash Point,,WAY - LI,17 Rawdon Street Freetown,Freetown,CENTRAL I,WESTERN,WESTERN URBAN,,,,,-13.23268,8.48948,
POS Terminal,Zenith Bank (SL) Ltd,Cash Point,,CROWN BAKERY AND CONFECTIONARY CO. LTD.,"5 Wilberforce Street, Freetown",Freetown,CENTRAL I,WESTERN,WESTERN URBAN,,,,,-13.23136,8.48875,
POS Terminal,Zenith Bank (SL) Ltd,Cash Point,,RAJUS ELECTRICALS,11A SIAKA STEVENS STREET,Freetown,CENTRAL II,WESTERN,WESTERN URBAN,,,,,-13.23746,8.48523,
POS Terminal,Zenith Bank (SL) Ltd,Cash Point,,LIFE CARE HOSPITAL EASTERN BRANCH,116 Bai Bureh Road Grass Field,Freetown,EAST III,WESTERN,WESTERN URBAN,,,,,-13.17968,8.46919,
POS Terminal,Zenith Bank (SL) Ltd,Cash Point,,DOHAS HOTEL AND GENERAL SERVICES,"2 Fatmata Bio Street, Lungi",LUNGI,KAFFU BULLOM,NORTH WESTERN,PORT LOKO,,,,,-13.22937,8.64318,
POS Terminal,Zenith Bank (SL) Ltd,Cash Point,,SUMMA AIRPORT,FREETOWN INTL AIRPORT LUNGI,LUNGI,KAFFU BULLOM,NORTH WESTERN,PORT LOKO,,,,,-13.20132,8.6148,
POS Terminal,Zenith Bank (SL) Ltd,Cash Point,,DOORWAY BAR AND GRILL RESTAURANTS,3 Kambali Street Mahera  Lungi,LUNGI,KAFFU BULLOM,NORTH WESTERN,PORT LOKO,,,,,-13.19789,8.60555,
POS Terminal,Zenith Bank (SL) Ltd,Cash Point,,SUMMA AIRPORT 3,FREETOWN INTL AIRPORT LUNGI,LUNGI,KAFFU BULLOM,NORTH WESTERN,PORT LOKO,,,,,-13.18734,8.6184,
POS Terminal,Zenith Bank (SL) Ltd,Cash Point,,SUMMA AIRPORT 2,FREETOWN INTL AIRPORT LUNGI,LUNGI,KAFFU BULLOM,NORTH WESTERN,PORT LOKO,,,,,-13.18679,8.61753,
POS Terminal,Zenith Bank (SL) Ltd,Cash Point,,SUMMA AIRPORT 4,FREETOWN INTL AIRPORT LUNGI,LUNGI,KAFFU BULLOM,NORTH WESTERN,PORT LOKO,,,,,-13.18596,8.61785,
POS Terminal,Zenith Bank (SL) Ltd,Cash Point,,SUMMA AIRPORT 5,FREETOWN INTL AIRPORT LUNGI,LUNGI,KAFFU BULLOM,NORTH WESTERN,PORT LOKO,,,,,-13.18423,8.61689,
POS Terminal,Zenith Bank (SL) Ltd,Cash Point,,TARIQ'S RESORT,"2 HAWA'S COVE, ROSINT-LUNGI, SIERRA LEONE",LUNGI,KAFFU BULLOM,NORTH WESTERN,PORT LOKO,,,,,-13.16103,8.55448,
POS Terminal,Zenith Bank (SL) Ltd,Cash Point,,CITY SUPERMARKET,"16 Main Hill Station Road, Freetown",Freetown,MOUNTAIN RURAL,WESTERN,WESTERN RURAL,,,,,-13.24115,8.45243,
POS Terminal,Zenith Bank (SL) Ltd,Cash Point,,LUNGI GATEWAY HOTEL,"103 Torwama Road, Bo",BO,TIKONKO,SOUTHERN,BO,,,,,-11.76072,7.94223,
POS Terminal,Zenith Bank (SL) Ltd,Cash Point,,ASPEN HEALTH CARE SERVICES(SL) LIMITED,11A King Harman Road,Freetown,WEST II,WESTERN,WESTERN URBAN,,,,,-13.24737,8.4715,
POS Terminal,Zenith Bank (SL) Ltd,Cash Point,,MAMBA POINT HOTEL(SL) LTD,"80 off Cape light house road, Aberdeen, Freetown",Freetown,WEST III,WESTERN,WESTERN URBAN,,,,,-13.29428,8.49609,
POS Terminal,Zenith Bank (SL) Ltd,Cash Point,,HOTEL BAMOI,"75C Cape Road, Aberdeen",Freetown,WEST III,WESTERN,WESTERN URBAN,,,,,-13.29008,8.49335,
POS Terminal,Zenith Bank (SL) Ltd,Cash Point,,CAPE LEISURE CLUB LIMITED,"80 Cape Road, Aberdeen",Freetown,WEST III,WESTERN,WESTERN URBAN,,,,,-13.29008,8.49335,
POS Terminal,Zenith Bank (SL) Ltd,Cash Point,,HOME SUITES HOTEL,78A  Cape Road Aberdeen,Freetown,WEST III,WESTERN,WESTERN URBAN,,,,,-13.29008,8.49335,
POS Terminal,Zenith Bank (SL) Ltd,Cash Point,,NOUNY PHARMACY-ABERDEEN,"1 Cape Road, Aberdeen",Freetown,WEST III,WESTERN,WESTERN URBAN,,,,,-13.29008,8.49335,
POS Terminal,Zenith Bank (SL) Ltd,Cash Point,,CAPE LEISURE CLUB LIMITED(SCARLET),"80 Cape Road, Aberdeen",Freetown,WEST III,WESTERN,WESTERN URBAN,,,,,-13.29008,8.49335,
POS Terminal,Zenith Bank (SL) Ltd,Cash Point,,FAMILY KINGDOM LIMITED,"9 Lumley Beach Road, Aberdeen, Freetown",Freetown,WEST III,WESTERN,WESTERN URBAN,,,,,-13.28409,8.4767,
POS Terminal,Zenith Bank (SL) Ltd,Cash Point,,SEACOACH BOAT COMPANY LTD freetown,"70 SIR SAMUEL LEWIS RD, ABERDEEN",Freetown,WEST III,WESTERN,WESTERN URBAN,,,,,-13.28101,8.49223,
POS Terminal,Zenith Bank (SL) Ltd,Cash Point,,CROWN XPRESS,"125 Wilkinson Road, Freetown",Freetown,WEST III,WESTERN,WESTERN URBAN,,,,,-13.27342,8.47655,
POS Terminal,Zenith Bank (SL) Ltd,Cash Point,,MONOPRIX SUPERMARKET,"4C Wilkinson Road, Freetown",Freetown,WEST III,WESTERN,WESTERN URBAN,,,,,-13.27342,8.47655,
POS Terminal,Zenith Bank (SL) Ltd,Cash Point,,FAIRWAY SUPERMARKET,"45 Wilkinson Road, Freetown",Freetown,WEST III,WESTERN,WESTERN URBAN,,,,,-13.27342,8.47655,
POS Terminal,Zenith Bank (SL) Ltd,Cash Point,,ISHWARI & SONS,"79B Wilkinson Road, Freetown",Freetown,WEST III,WESTERN,WESTERN URBAN,,,,,-13.27342,8.47655,
POS Terminal,Zenith Bank (SL) Ltd,Cash Point,,ATLANTIC LUMLEY HOTEL LIMITED,"84 Lumley Beach Road, Freetown",Freetown,WEST III,WESTERN,WESTERN URBAN,,,,,-13.27221,8.4567,
POS Terminal,Zenith Bank (SL) Ltd,Cash Point,,LEONCO STATION,Leonco Station Lumley,Freetown,WEST III,WESTERN,WESTERN URBAN,,,,,-13.27213,8.45695,
POS Terminal,Zenith Bank (SL) Ltd,Cash Point,,MANGO PEAK (SL) LIMITED,1C Regent Road Hill Station,Freetown,WEST III,WESTERN,WESTERN URBAN,,,,,-13.25291,8.46028,
