AP_TYPE,Name of Access Point,Office Type:,AP_Attached_Facility,Attach_Facility Name,Street Address,City or town,CHIEFDOM,REGION,DISTRICT,Products Offered,Services offered,Status,Agent Code/ Branch Code,Longitude,Lattitude,Photo
Post Office,Kaiahun Post Office,Post Office,,,Koindu Road,Kaiahun,Luawa,East,KAILAHUN,,,,,-10.57435337,8.275664763,
Post Office,SALPOST,Post Office,,,Siaka Stevens Street,Freetown,Central 11,West,WESTERN URBAN,,,,,-13.2345155,8.4884194,
Post Office,Magburaka Post Office,Post Office,,,Albert Road,Magburaka,Kholifa Rowala,North,TONKOLILI,,,,,-11.9503639,8.7226923,
Post Office,Bo Post Office,Post Office,,,Lion Road,Bo,Bo Town,South,BO,,,,,-11.7414152,7.9610491,
Post Office,Kenema Post Office,Post Office,,,Hangha Road,Kenema,Kenema City,East,KENEMA,,,,,-11.1918437,7.8746718,
Post Office,Kambia Post Office,Post Office,,,,Kambia,Magbema,North West,KAMBIA,,,,,-12.9184091,9.1220866,
Post Office,Makeni Office,Post Office,,,Albert Road,Makeni,Makeni City,North,BOMBALI,,,,,-12.0560786,8.878524,
,,,,,,,,,,,,,,,,
,,,,,,,,,,,,,,,,
,,,,,,,,,,,,,,,,
,,,,,,,,,,,,,,,,
,,,,,,,,,,,,,,,,
,,,,,,,,,,,,,,,,
,,,,,,,,,,,,,,,,
,,,,,,,,,,,,,,,,
,,,,,,,,,,,,,,,,
,,,,,,,,,,,,,,,,
,,,,,,,,,,,,,,,,
,,,,,,,,,,,,,,,,
,,,,,,,,,,,,,,,,
,,,,,,,,,,,,,,,,
,,,,,,,,,,,,,,,,
,,,,,,,,,,,,,,,,
,,,,,,,,,,,,,,,,
,,,,,,,,,,,,,,,,
,,,,,,,,,,,,,,,,
,,,,,,,,,,,,,,,,
 ,,,,,,,,,,,,,,,,
